COMMENT,ORIGINATOR,NORAD_CAT_ID,OBJECT_NAME,OBJECT_TYPE,CLASSIFICATION_TYPE,INTLDES,EPOCH,EPOCH_MICROSECONDS,MEAN_MOTION,ECCENTRICITY,INCLINATION,RA_OF_ASC_NODE,ARG_OF_PERICENTER,MEAN_ANOMALY,EPHEMERIS_TYPE,ELEMENT_SET_NO,REV_AT_EPOCH,BSTAR,MEAN_MOTION_DOT,MEAN_MOTION_DDOT,FILE,TLE_LINE0,TLE_LINE1,TLE_LINE2,OBJECT_ID,OBJECT_NUMBER,SEMIMAJOR_AXIS,PERIOD,APOGEE,PERIGEE,DECAYED
"GENERATED VIA SPACETRACK.ORG API","18 SPCS","12345","COSMOS 1174 DEB","DEBRIS","U","80030T","1985-08-16 10:58:55","135775","14.06867838","0.0628716","66.0614","4.5146","250.7493","102.4607","0","999","71985","0.00013026","0.00001338","0","34419","0 COSMOS 1174 DEB","1 12345U 80030  T 85228.45758259  .00001338 +00000-0 +13026-3 0  9996","2 12345 066.0614 004.5146 0628716 250.7493 102.4607 14.06867838719851","1980-030T","12345","7248.251","102.355","1325.826","414.407","1"
"GENERATED VIA SPACETRACK.ORG API","18 SPCS","12345","COSMOS 1174 DEB","DEBRIS","U","80030T","1985-08-12 19:58:10","714943","14.0685563","0.0628467","66.0622","13.9617","252.9252","100.2095","0","999","71934","0.000080137","0.00000835","0","34419","0 COSMOS 1174 DEB","1 12345U 80030  T 85224.83206846  .00000835 +00000-0 +80137-4 0  9993","2 12345 066.0622 013.9617 0628467 252.9252 100.2095 14.06855630719345","1980-030T","12345","7248.293","102.356","1325.690","414.627","1"
"GENERATED VIA SPACETRACK.ORG API","18 SPCS","12345","COSMOS 1174 DEB","DEBRIS","U","80030T","1985-08-09 20:18:43","128863","14.06850174","0.0628474","66.0624","21.7376","254.5751","98.5007","0","999","71892","0.00010771","0.00001082","0","34419","0 COSMOS 1174 DEB","1 12345U 80030  T 85221.84633251  .00001082 +00000-0 +10771-3 0  9996","2 12345 066.0624 021.7376 0628474 254.5751 098.5007 14.06850174718929","1980-030T","12345","7248.312","102.356","1325.715","414.640","1"
"GENERATED VIA SPACETRACK.ORG API","18 SPCS","12345","COSMOS 1174 DEB","DEBRIS","U","80030T","1985-08-04 22:35:17","68991","14.06837134","0.0628612","66.0602","34.5072","257.1976","95.8269","0","999","71823","0.00012895","0.00001323","0","34419","0 COSMOS 1174 DEB","1 12345U 80030  T 85216.94116978  .00001323 +00000-0 +12895-3 0  9990","2 12345 066.0602 034.5072 0628612 257.1976 095.8269 14.06837134718237","1980-030T","12345","7248.357","102.357","1325.862","414.582","1"
"GENERATED VIA SPACETRACK.ORG API","18 SPCS","12345","COSMOS 1174 DEB","DEBRIS","U","80030T","1985-08-01 22:55:46","221312","14.0682699","0.062866","66.0611","42.2827","258.9137","94.0696","0","999","71781","0.000084139","0.00000881","0","34419","0 COSMOS 1174 DEB","1 12345U 80030  T 85213.95539608  .00000881 +00000-0 +84139-4 0  9996","2 12345 066.0611 042.2827 0628660 258.9137 094.0696 14.06826990717818","1980-030T","12345","7248.392","102.358","1325.934","414.579","1"
"GENERATED VIA SPACETRACK.ORG API","18 SPCS","12345","COSMOS 1174 DEB","DEBRIS","U","80030T","1985-07-29 14:44:22","431264","14.0681843","0.0628944","66.0626","50.9823","260.839","92.0893","0","999","71734","0.000030466","0.00000281","0","34419","0 COSMOS 1174 DEB","1 12345U 80030  T 85210.61414851  .00000281 +00000-0 +30466-4 0  9996","2 12345 066.0626 050.9823 0628944 260.8390 092.0893 14.06818430717349","1980-030T","12345","7248.421","102.359","1326.171","414.401","1"
"GENERATED VIA SPACETRACK.ORG API","18 SPCS","12345","COSMOS 1174 DEB","DEBRIS","U","80030T","1985-07-25 01:32:40","218431","14.06814005","0.0629056","66.0584","62.8366","263.3619","89.5533","0","999","71670","0.000084293","0.00000887","0","34419","0 COSMOS 1174 DEB","1 12345U 80030  T 85206.06435438  .00000887 +00000-0 +84293-4 0  9993","2 12345 066.0584 062.8366 0629056 263.3619 089.5533 14.06814005716708","1980-030T","12345","7248.436","102.359","1326.269","414.334","1"
"GENERATED VIA SPACETRACK.ORG API","18 SPCS","12345","COSMOS 1174 DEB","DEBRIS","U","80030T","1985-07-24 23:50:18","189312","14.0681383","0.0629058","66.0584","63.0216","263.4028","89.5239","0","999","71669","0.000083853","0.00000881","0","34419","0 COSMOS 1174 DEB","1 12345U 80030  T 85205.99326608  .00000881 +00000-0 +83853-4 0  9997","2 12345 066.0584 063.0216 0629058 263.4028 089.5239 14.06813830716698","1980-030T","12345","7248.437","102.359","1326.271","414.333","1"
"GENERATED VIA SPACETRACK.ORG API","18 SPCS","12345","COSMOS 1174 DEB","DEBRIS","U","80030T","1985-07-21 00:17:31","817184","14.06806334","0.0629203","66.0597","73.388","265.6849","87.2171","0","999","71613","0.00007642","0.00000799","0","34419","0 COSMOS 1174 DEB","1 12345U 80030  T 85202.01217381  .00000799 +00000-0 +76420-4 0  9994","2 12345 066.0597 073.3880 0629203 265.6849 087.2171 14.06806334716130","1980-030T","12345","7248.463","102.360","1326.403","414.252","1"
"GENERATED VIA SPACETRACK.ORG API","18 SPCS","12345","COSMOS 1174 DEB","DEBRIS","U","80030T","1985-07-18 17:41:38","801760","14.06801105","0.0629079","66.064","79.3131","266.9675","85.9181","0","999","71581","0.000027656","0.00000251","0","34419","0 COSMOS 1174 DEB","1 12345U 80030  T 85199.73725465  .00000251 +00000-0 +27656-4 0  9995","2 12345 066.0640 079.3131 0629079 266.9675 085.9181 14.06801105715817","1980-030T","12345","7248.481","102.360","1326.332","414.359","1"
"GENERATED VIA SPACETRACK.ORG API","18 SPCS","12345","COSMOS 1174 DEB","DEBRIS","U","80030T","1985-07-16 02:33:54","153791","14.06801786","0.062949","66.0636","86.1615","268.4628","84.4306","0","999","71544","0.000087978","0.00000932","0","34419","0 COSMOS 1174 DEB","1 12345U 80030  T 85197.10687678  .00000932 +00000-0 +87978-4 0  9996","2 12345 066.0636 086.1615 0629490 268.4628 084.4306 14.06801786715444","1980-030T","12345","7248.478","102.360","1326.628","414.059","1"
"GENERATED VIA SPACETRACK.ORG API","18 SPCS","12345","COSMOS 1174 DEB","DEBRIS","U","80030T","1985-07-14 16:26:28","319136","14.06800277","0.0629452","66.0635","89.8623","269.2518","83.6436","0","999","71524","0.00013081","0.00001355","0","34419","0 COSMOS 1174 DEB","1 12345U 80030  T 85195.68504999  .00001355 +00000-0 +13081-3 0  9994","2 12345 066.0635 089.8623 0629452 269.2518 083.6436 14.06800277715244","1980-030T","12345","7248.484","102.360","1326.606","414.091","1"
"GENERATED VIA SPACETRACK.ORG API","18 SPCS","12345","COSMOS 1174 DEB","DEBRIS","U","80030T","1985-07-13 01:11:55","484735","14.06792456","0.0629566","66.0623","94.1211","270.1605","82.7415","0","999","71501","0.000097888","0.00001044","0","34419","0 COSMOS 1174 DEB","1 12345U 80030  T 85194.04994774  .00001044 +00000-0 +97888-4 0  9990","2 12345 066.0623 094.1211 0629566 270.1605 082.7415 14.06792456715018","1980-030T","12345","7248.510","102.361","1326.717","414.034","1"
"GENERATED VIA SPACETRACK.ORG API","18 SPCS","12345","COSMOS 1174 DEB","DEBRIS","U","80030T","1985-07-11 16:46:50","987136","14.06794548","0.0629673","66.0631","97.6388","270.8997","82.0012","0","999","71482","0.0001558","0.00001637","0","34419","0 COSMOS 1174 DEB","1 12345U 80030  T 85192.69920124  .00001637 +00000-0 +15580-3 0  9993","2 12345 066.0631 097.6388 0629673 270.8997 082.0012 14.06794548714828","1980-030T","12345","7248.503","102.360","1326.787","413.950","1"
"GENERATED VIA SPACETRACK.ORG API","18 SPCS","12345","COSMOS 1174 DEB","DEBRIS","U","80030T","1985-07-09 23:49:55","443647","14.06787654","0.0628883","66.0652","102.0856","271.7819","81.1492","0","999","71458","0.00013968","0.00001447","0","34419","0 COSMOS 1174 DEB","1 12345U 80030  T 85190.99300282  .00001447 +00000-0 +13968-3 0  9998","2 12345 066.0652 102.0856 0628883 271.7819 081.1492 14.06787654714582","1980-030T","12345","7248.527","102.361","1326.239","414.544","1"
"GENERATED VIA SPACETRACK.ORG API","18 SPCS","12345","COSMOS 1174 DEB","DEBRIS","U","80030T","1985-07-06 00:17:02","522399","14.0677362","0.0628785","66.0646","112.4513","274.1543","78.7962","0","999","71402","0.00006365","0.00000654","0","34419","0 COSMOS 1174 DEB","1 12345U 80030  T 85187.01183475  .00000654 +00000-0 +63650-4 0  9993","2 12345 066.0646 112.4513 0628785 274.1543 078.7962 14.06773620714023","1980-030T","12345","7248.575","102.362","1326.220","414.661","1"
"GENERATED VIA SPACETRACK.ORG API","18 SPCS","12345","COSMOS 1174 DEB","DEBRIS","U","80030T","1985-07-03 05:44:28","89600","14.06771225","0.0629187","66.0609","119.6637","275.6372","77.3226","0","999","71363","0.00010765","0.00001091","0","34419","0 COSMOS 1174 DEB","1 12345U 80030  T 85184.23921400  .00001091 +00000-0 +10765-3 0  9996","2 12345 066.0609 119.6637 0629187 275.6372 077.3226 14.06771225713634","1980-030T","12345","7248.583","102.362","1326.520","414.377","1"
"GENERATED VIA SPACETRACK.ORG API","18 SPCS","12345","COSMOS 1174 DEB","DEBRIS","U","80030T","1985-06-27 06:25:04","821887","14.06757306","0.0629131","66.0596","135.2188","278.9769","74.0659","0","999","71279","0.00011958","0.00001226","0","34419","0 COSMOS 1174 DEB","1 12345U 80030  T 85178.26741692  .00001226 +00000-0 +11958-3 0  9990","2 12345 066.0596 135.2188 0629131 278.9769 074.0659 14.06757306712793","1980-030T","12345","7248.631","102.363","1326.530","414.462","1"
"GENERATED VIA SPACETRACK.ORG API","18 SPCS","12345","COSMOS 1174 DEB","DEBRIS","U","80030T","1985-06-24 06:45:20","530368","14.06747764","0.0628794","66.0575","142.9916","280.6659","72.4242","0","999","71237","0.000096921","0.00001026","0","34419","0 COSMOS 1174 DEB","1 12345U 80030  T 85175.28148762  .00001026 +00000-0 +96921-4 0  9990","2 12345 066.0575 142.9916 0628794 280.6659 072.4242 14.06747764712377","1980-030T","12345","7248.664","102.364","1326.321","414.737","1"
"GENERATED VIA SPACETRACK.ORG API","18 SPCS","12345","COSMOS 1174 DEB","DEBRIS","U","80030T","1985-06-22 08:41:12","784991","14.06743011","0.0628792","66.0571","147.9895","281.736","71.3871","0","999","71210","0.000089124","0.00000939","0","34419","0 COSMOS 1174 DEB","1 12345U 80030  T 85173.36195353  .00000939 +00000-0 +89124-4 0  9994","2 12345 066.0571 147.9895 0628792 281.7360 071.3871 14.06743011712101","1980-030T","12345","7248.680","102.364","1326.336","414.754","1"
